     2              NAVIGATION DATA                         RINEX VERSION / TYPE
ephVote             Stanford GPS Lab    2021-03-24 17:54:58 PGM / RUN BY / DATE 
                                                            END OF HEADER       
25 20  1  4 16  0  0.0 -1.662038266659E-05  5.684341886081E-13  0.000000000000E+00
     1.000000000000E+02  3.775000000000E+01  4.575547732786E-09 -9.298270914420E-01
     1.944601535797E-06  8.847395074554E-03  4.446133971214E-06  5.153608909607E+03
     5.760000000000E+05  9.685754776001E-08 -2.680479435493E+00  2.309679985046E-07
     9.677458007828E-01  2.967187500000E+02  8.881339817738E-01 -8.312846263414E-09
    -1.271481533738E-10  1.000000000000E+00  2.086000000000E+03  0.000000000000E+00
     2.400000000000E+00  0.000000000000E+00  5.587935447693E-09  1.000000000000E+02
     5.688000000000E+05  4.000000000000E+00  1.611055900621E+02  1.310807453416E+02
25 20  1  4 18  0  0.0 -1.661619171500E-05  5.684341886081E-13  0.000000000000E+00
     1.010000000000E+02  4.037500000000E+01  4.648407910562E-09  1.204086499722E-01
     2.156943082809E-06  8.847775286995E-03  4.323199391365E-06  5.153609672546E+03
     5.832000000000E+05 -4.284083843231E-08 -2.680540026634E+00  1.434236764908E-07
     9.677445192665E-01  2.979687500000E+02  8.881194286647E-01 -8.421065056875E-09
    -1.146476326769E-10  1.000000000000E+00  2.086000000000E+03  0.000000000000E+00
     2.400000000000E+00  0.000000000000E+00  5.587935447693E-09  1.010000000000E+02
     5.760000000000E+05  4.000000000000E+00  2.500880000000E+02  2.040880000000E+02
25 20  1  4 20  0  0.0 -1.661200076342E-05  5.684341886081E-13  0.000000000000E+00
     1.050000000000E+02  4.081250000000E+01  4.649836541499E-09  1.170580846614E+00
     2.151355147362E-06  8.848351892084E-03  4.736706614494E-06  5.153611049652E+03
     5.904000000000E+05 -1.341104507446E-07 -2.680600401264E+00  1.080334186554E-07
     9.677435010755E-01  2.930000000000E+02  8.881676610738E-01 -8.394635384545E-09
    -1.450060400836E-10  1.000000000000E+00  2.086000000000E+03  0.000000000000E+00
     2.400000000000E+00  0.000000000000E+00  5.587935447693E-09  1.050000000000E+02
     5.832000000000E+05  4.000000000000E+00  2.710959409594E+02  2.180885608856E+02
25 20  1  4 22  0  0.0 -1.660780981183E-05  5.684341886081E-13  0.000000000000E+00
     1.070000000000E+02  3.934375000000E+01  4.546975114050E-09  2.220792692724E+00
     1.899898052216E-06  8.848528726958E-03  4.729256033897E-06  5.153611137390E+03
     5.976000000000E+05 -1.043081283569E-07 -2.680660878297E+00 -2.142041921616E-07
     9.677439955418E-01  2.907812500000E+02  8.881758768218E-01 -8.123195506556E-09
    -2.142946405177E-11  1.000000000000E+00  2.086000000000E+03  0.000000000000E+00
     2.400000000000E+00  0.000000000000E+00  5.587935447693E-09  1.070000000000E+02
     5.904000000000E+05  4.000000000000E+00  2.441188524590E+02  1.891065573770E+02
25 20  1  4 23 59 44.0 -1.660361886024E-05  5.684341886081E-13  0.000000000000E+00
     2.200000000000E+01  4.290625000000E+01  4.528760069606E-09 -3.014529780294E+00
     2.119690179825E-06  8.848010096699E-03  4.597008228302E-06  5.153612150192E+03
     6.047840000000E+05  4.470348358154E-08 -2.680719039531E+00 -2.123415470123E-07
     9.677440204115E-01  2.927500000000E+02  8.881981585270E-01 -8.097837307428E-09
     6.428839215530E-12  1.000000000000E+00  2.086000000000E+03  0.000000000000E+00
     2.400000000000E+00  0.000000000000E+00  5.587935447693E-09  2.200000000000E+01
     6.014100000000E+05  4.000000000000E+00  1.461095890411E+02  1.230410958904E+02
26 20  1  4  0  0  0.0  1.198071986437E-04  8.071765478235E-12  0.000000000000E+00
     7.800000000000E+01  2.237500000000E+01  5.060210778090E-09  2.637614826879E+00
     1.246109604836E-06  4.474725341424E-03  5.135312676430E-06  5.153724990845E+03
     5.184000000000E+05 -1.415610313416E-07 -2.712625001960E+00 -1.490116119385E-08
     9.489160643115E-01  2.752500000000E+02  1.572331653467E-01 -8.361419715265E-09
    -7.964617472573E-11  1.000000000000E+00  2.086000000000E+03  0.000000000000E+00
     3.400000000000E+00  0.000000000000E+00  7.450580596924E-09  7.800000000000E+01
     5.112000000000E+05  4.000000000000E+00  3.961060606061E+02  3.111035353535E+02
26 20  1  4  1 59 44.0  1.198626123369E-04  8.071765478235E-12  0.000000000000E+00
     0.000000000000E+00  2.512500000000E+01  5.015566061316E-09 -2.597712514730E+00
     1.251697540283E-06  4.474587156437E-03  5.235895514488E-06  5.153725229263E+03
     5.255840000000E+05 -8.940696716309E-08 -2.712685010859E+00 -9.872019290924E-08
     9.489155976406E-01  2.752812500000E+02  1.571950168320E-01 -8.352847929644E-09
    -5.785955293977E-11  1.000000000000E+00  2.086000000000E+03  0.000000000000E+00
     2.400000000000E+00  0.000000000000E+00  7.450580596924E-09  0.000000000000E+00
     5.205000000000E+05  4.000000000000E+00  1.631288343558E+02  1.241104294479E+02
26 20  1  4  2  0  0.0  1.198654063046E-04  8.071765478235E-12  0.000000000000E+00
     9.300000000000E+01  2.512500000000E+01  5.015566061316E-09 -2.595378339697E+00
     1.251697540283E-06  4.474597633816E-03  5.235895514488E-06  5.153725234985E+03
     5.256000000000E+05 -8.940696716309E-08 -2.712685163003E+00 -9.872019290924E-08
     9.489156064182E-01  2.752812500000E+02  1.571945238286E-01 -8.352490771910E-09
    -5.750239520557E-11  1.000000000000E+00  2.086000000000E+03  0.000000000000E+00
     3.400000000000E+00  0.000000000000E+00  7.450580596924E-09  9.300000000000E+01
     5.184000000000E+05  4.000000000000E+00  1.761193181818E+02  1.331136363636E+02
26 20  1  4  3 59 44.0  1.199208199978E-04  8.071765478235E-12  0.000000000000E+00
     2.100000000000E+01  2.409375000000E+01  4.986636284846E-09 -1.547708318138E+00
     1.000240445137E-06  4.474756657146E-03  4.705041646957E-06  5.153723970413E+03
     5.327840000000E+05  4.470348358154E-08 -2.712745991136E+00 -5.960464477539E-08
     9.489154396455E-01  2.805625000000E+02  1.573442461794E-01 -8.408207378444E-09
     4.607334771129E-11  1.000000000000E+00  2.086000000000E+03  0.000000000000E+00
     2.400000000000E+00  0.000000000000E+00  7.450580596924E-09  2.100000000000E+01
     5.255700000000E+05  4.000000000000E+00  1.040769230769E+02  8.906730769231E+01
26 20  1  4  6  0  0.0  1.199785619974E-04  8.071765478235E-12  0.000000000000E+00
     7.900000000000E+01  2.953125000000E+01  4.981993234301E-09 -4.954007453267E-01
     1.538544893265E-06  4.474466200918E-03  4.470348358154E-06  5.153722373962E+03
     5.400000000000E+05  1.024454832077E-07 -2.712806514983E+00  1.117587089539E-08
     9.489154308680E-01  2.840625000000E+02  1.575243562646E-01 -8.468567035523E-09
    -3.571577341961E-13  1.000000000000E+00  2.086000000000E+03  0.000000000000E+00
     2.400000000000E+00  0.000000000000E+00  7.450580596924E-09  7.900000000000E+01
     5.328000000000E+05  4.000000000000E+00  1.050761904762E+02  9.103809523810E+01
26 20  1  4  8  0  0.0  1.200367696583E-04  8.071765478235E-12  0.000000000000E+00
     8.000000000000E+01  3.228125000000E+01  4.954134931034E-09  5.547392510250E-01
     1.708045601845E-06  4.475340014324E-03  4.246830940247E-06  5.153724040985E+03
     5.472000000000E+05  5.215406417847E-08 -2.712867565480E+00  6.705522537231E-08
     9.489153065199E-01  2.895937500000E+02  1.575382539863E-01 -8.484281975828E-09
    -1.535778257043E-11  1.000000000000E+00  2.086000000000E+03  0.000000000000E+00
     2.400000000000E+00  0.000000000000E+00  7.450580596924E-09  8.000000000000E+01
     5.400000000000E+05  4.000000000000E+00  1.861182795699E+02  1.510591397849E+02
26 20  1  4 10  0  0.0  1.200945116580E-04  8.071765478235E-12  0.000000000000E+00
     8.100000000000E+01  3.590625000000E+01  4.940920094869E-09  1.604757389227E+00
     1.929700374603E-06  4.475714522414E-03  4.537403583527E-06  5.153725385666E+03
     5.544000000000E+05 -2.793967723846E-08 -2.712928155159E+00  4.097819328308E-08
     9.489150300284E-01  2.860937500000E+02  1.576726069198E-01 -8.451066306548E-09
    -7.678891285216E-11  1.000000000000E+00  2.086000000000E+03  0.000000000000E+00
     2.400000000000E+00  0.000000000000E+00  7.450580596924E-09  8.100000000000E+01
     5.472000000000E+05  4.000000000000E+00  2.350893617021E+02  1.980680851064E+02
26 20  1  4 12  0  0.0  1.201527193189E-04  8.071765478235E-12  0.000000000000E+00
     8.500000000000E+01  3.337500000000E+01  4.898418324499E-09  2.654833262953E+00
     1.797452569008E-06  4.475569119677E-03  4.637986421585E-06  5.153726066589E+03
     5.616000000000E+05 -8.568167686462E-08 -2.712989142750E+00 -2.048909664154E-08
     9.489148252199E-01  2.848750000000E+02  1.577488746910E-01 -8.394278226811E-09
    -3.035840740667E-11  1.000000000000E+00  2.086000000000E+03  0.000000000000E+00
     2.400000000000E+00  0.000000000000E+00  7.450580596924E-09  8.500000000000E+01
     5.544000000000E+05  4.000000000000E+00  2.010646766169E+02  1.780447761194E+02
26 20  1  4 14  0  0.0  1.202104613185E-04  8.071765478235E-12  0.000000000000E+00
     8.800000000000E+01  3.465625000000E+01  4.853773607725E-09 -2.578173833529E+00
     1.806765794754E-06  4.475733498111E-03  4.796311259270E-06  5.153725763321E+03
     5.688000000000E+05 -2.235174179077E-08 -2.713049350607E+00 -3.725290298462E-08
     9.489148310716E-01  2.831250000000E+02  1.577223651524E-01 -8.347490563631E-09
    -2.642967233051E-11  1.000000000000E+00  2.086000000000E+03  0.000000000000E+00
     2.400000000000E+00  0.000000000000E+00  7.450580596924E-09  8.800000000000E+01
     5.616000000000E+05  4.000000000000E+00  1.430419580420E+02  1.330209790210E+02
